Policy Number,Insured Name,Building Number,Street,City,State,Zip
SLB201702433,"Chinelli Design Build, LLC",520,N. VOLUSIA AVE.,Orange City,FL,32763
SLB201703496,"Marlin Towers, Inc.",3200,NE 29th Street,Fort Lauderdale,FL,33308
SLB201701935,"BLAND MUSIC, INC.",20037,E. PENNSYLVANIA,Dunnellon,FL,34432
SLB201701923,"YZ HOLLYWOOD PLAZA, LLC",5845,HOLLYWOOD BLVD,Hollywood,FL,33021
SLB201701466,"ANDREW MASCIARELLA & PRECISION SMALL ENGINE CO., INC.",2510,NW. 16TH LANE,Pompano Beach,FL,33064
SLB201701466,"ANDREW MASCIARELLA & PRECISION SMALL ENGINE CO., INC.",2500,NW. 16TH LANE,Pompano Beach,FL,33064
SLB201700941,"ISLE OF CATALINA HOMEOWNERS ASSOCIATION, INC.",2701,CATALINA DRIVE,Orlando,FL,32805
SLB201703125,CCW Acquisition Co. DBA Calypso Car Wash & Fast Lube,1470,GOLDEN GATE PKWY,Naples,FL,34105
SLB201703125,CCW Acquisition Co. DBA Calypso Car Wash & Fast Lube,1472,GOLDEN GATE PKWY,Naples,FL,34105
SLB201703125,CCW Acquisition Co. DBA Calypso Car Wash & Fast Lube,1470,GOLDEN GATE PKWY,Naples,FL,34105
SLB201703125,CCW Acquisition Co. DBA Calypso Car Wash & Fast Lube,1472,GOLDEN GATE PKWY,Naples,FL,34105
SLB201703125,CCW Acquisition Co. DBA Calypso Car Wash & Fast Lube,1470,GOLDEN GATE PKWY,Naples,FL,34105
SLB201703125,CCW Acquisition Co. DBA Calypso Car Wash & Fast Lube,1472,GOLDEN GATE PKWY,Naples,FL,34105
SLB201702456,"MIAMI UROLOGY & SEXUAL WELLNESS INSTITUTE, P.A.",1855,"VETERANS PARK DR, SUITE 101",Naples,FL,34109
SLB201603518,Reynosa III LLC,829,SW 3rd Street,Miami,FL,33130
SLB201703136,"ALLUDA CONDOMINIUM ASSOCIATION, INC.",8732,NW 119TH ST,Hialeah Gardens,FL,33018
SLB201703136,"ALLUDA CONDOMINIUM ASSOCIATION, INC.",8726,NW 119TH ST,Hialeah Gardens,FL,33018
SLB201703125,CCW Acquisition Co. DBA Calypso Car Wash & Fast Lube,1470,GOLDEN GATE PKWY,Naples,FL,34105
SLB201703125,CCW Acquisition Co. DBA Calypso Car Wash & Fast Lube,1472,GOLDEN GATE PKWY,Naples,FL,34105
SLB201603382,Donald & Janice Wenger,1698,Dianne Terrcae,Deltona,FL,32725
SLB201702815,"ALL-TECH SYSTEMS PENSACOLA, INC.",8305,KLONDIKE RD,Pensacola,FL,32526
SLB201702801,"Phoenix Rentals, Inc.",395,COMMERCIAL ST,Casselberry,FL,32707
SLB201702801,"Phoenix Rentals, Inc.",368,COMMERCIAL ST,Casselberry,FL,32707
SLB201603119,"MD South Property Management, Inc.",415,COMMERCIAL COURT,Venice,FL,34292
SLB201603120,"CARIBBEAN VENTURES, INC.",7200,SW 8TH STREET,Miami,FL,33144
SLB201603120,"CARIBBEAN VENTURES, INC.",13399,SW 42ND STREET,Miami,FL,33175
SLB201703122,"JAI JALARAM ENTERPRISES, INC. DBA SCOTTISH INN",2580,STATE ROAD 16,Saint Augustine,FL,32092
SLB201703122,"JAI JALARAM ENTERPRISES, INC. DBA SCOTTISH INN",2580,STATE ROAD 16,Saint Augustine,FL,32092
SLB201703123,GRACE BAPTIST CHURCH,1215,NORWOOD AVENUE,Titusville,FL,32796
SLB201603508,Cypress Hollow Homeowners Association,8997,Cypress Hollow Drive,Palm Beach Gardens,FL,33420
SLB201603508,Cypress Hollow Homeowners Association,8997,Cypress Hollow Drive,Palm Beach Gardens,FL,33420
SLB201603508,Cypress Hollow Homeowners Association,8997,Cypress Hollow Drive,Palm Beach Gardens,FL,33420
SLB201701932,"Sunshine Roofing of SW FL, Inc.",5735,YAHL STREET,Naples,FL,34109
SLB201701932,"Sunshine Roofing of SW FL, Inc.",5735,YAHL STREET,Naples,FL,34109
SLB201701932,"Sunshine Roofing of SW FL, Inc.",5735,YAHL STREET,Naples,FL,34109
SLB201702797,LE DONG CORP. DBA GINZA JAPANESE BUFFET,16153,BISCAYNE BLVD,North Miami Beach,FL,33160
SLB201701948,4J'S FEED AND TACK COMPANY,12135,COLLIER BLVD,Naples,FL,34116
SLB201603521,Underground Specialists Construction Inc.,12135,Collier Blvd.,Naples,FL,34116
SLB201603311,"TALLAHASSEE URBAN LEAGUE, INC.",923,OLD BAINBRIDGE RD.,Tallahassee,FL,32303
SLB201601896,"St. John's Cemetery, Inc.",301,NORTH G STREET,Pensacola,FL,32501
SLB201603159,9313-4237 HOLDING LP DBA GULFSTREAM APARTMENTS,4782,GULFSTREAM ROAD,Lake Worth,FL,33461
SLB201603159,9313-4237 HOLDING LP DBA GULFSTREAM APARTMENTS,4782,GULFSTREAM ROAD,Lake Worth,FL,33461
SLB201603159,9313-4237 HOLDING LP DBA GULFSTREAM APARTMENTS,4782,GULFSTREAM ROAD,Lake Worth,FL,33461
SLB201603159,9313-4237 HOLDING LP DBA GULFSTREAM APARTMENTS,4758,GULFSTREAM ROAD,Lake Worth,FL,33461
SLB201603159,9313-4237 HOLDING LP DBA GULFSTREAM APARTMENTS,4758,GULFSTREAM ROAD,Lake Worth,FL,33461
SLB201603159,9313-4237 HOLDING LP DBA GULFSTREAM APARTMENTS,4758,GULFSTREAM ROAD,Lake Worth,FL,33461
SLB201603159,9313-4237 HOLDING LP DBA GULFSTREAM APARTMENTS,4927,GULFSTREAM ROAD,Lake Worth,FL,33461
SLB201603159,9313-4237 HOLDING LP DBA GULFSTREAM APARTMENTS,4927,GULFSTREAM ROAD,Lake Worth,FL,33461
SLB201603159,9313-4237 HOLDING LP DBA GULFSTREAM APARTMENTS,4927,GULFSTREAM ROAD,Lake Worth,FL,33461
SLB201603159,9313-4237 HOLDING LP DBA GULFSTREAM APARTMENTS,3802,MELALEUCA LANE,Lake Worth,FL,33461
SLB201603159,9313-4237 HOLDING LP DBA GULFSTREAM APARTMENTS,3802,MELALEUCA LANE,Lake Worth,FL,33461
SLB201603159,9313-4237 HOLDING LP DBA GULFSTREAM APARTMENTS,3802,MELALEUCA LANE,Lake Worth,FL,33461
SLB201603159,9313-4237 HOLDING LP DBA GULFSTREAM APARTMENTS,3802,MELALEUCA LANE,Lake Worth,FL,33461
SLB201603159,9313-4237 HOLDING LP DBA GULFSTREAM APARTMENTS,3802,MELALEUCA LANE,Lake Worth,FL,33461
SLB201603159,9313-4237 HOLDING LP DBA GULFSTREAM APARTMENTS,3802,MELALEUCA LANE,Lake Worth,FL,33461
SLB201603159,9313-4237 HOLDING LP DBA GULFSTREAM APARTMENTS,3802,MELALEUCA LANE,Lake Worth,FL,33461
SLB201603159,9313-4237 HOLDING LP DBA GULFSTREAM APARTMENTS,3802,MELALEUCA LANE,Lake Worth,FL,33461
SLB201603159,9313-4237 HOLDING LP DBA GULFSTREAM APARTMENTS,3802,MELALEUCA LANE,Lake Worth,FL,33461
SLB201603159,9313-4237 HOLDING LP DBA GULFSTREAM APARTMENTS,3802,MELALEUCA LANE,Lake Worth,FL,33461
SLB201603159,9313-4237 HOLDING LP DBA GULFSTREAM APARTMENTS,3802,MELALEUCA LANE,Lake Worth,FL,33461
SLB201603159,9313-4237 HOLDING LP DBA GULFSTREAM APARTMENTS,3802,MELALEUCA LANE,Lake Worth,FL,33461
SLB201603159,9313-4237 HOLDING LP DBA GULFSTREAM APARTMENTS,3802,MELALEUCA LANE,Lake Worth,FL,33461
SLB201603159,9313-4237 HOLDING LP DBA GULFSTREAM APARTMENTS,3802,MELALEUCA LANE,Lake Worth,FL,33461
SLB201603159,9313-4237 HOLDING LP DBA GULFSTREAM APARTMENTS,3802,MELALEUCA LANE,Lake Worth,FL,33461
SLB201603159,9313-4237 HOLDING LP DBA GULFSTREAM APARTMENTS,3802,MELALEUCA LANE,Lake Worth,FL,33461
SLB201603159,9313-4237 HOLDING LP DBA GULFSTREAM APARTMENTS,3802,MELALEUCA LANE,Lake Worth,FL,33461
SLB201603159,9313-4237 HOLDING LP DBA GULFSTREAM APARTMENTS,3802,MELALEUCA LANE,Lake Worth,FL,33461
SLB201603159,9313-4237 HOLDING LP DBA GULFSTREAM APARTMENTS,3802,MELALEUCA LANE,Lake Worth,FL,33461
SLB201603159,9313-4237 HOLDING LP DBA GULFSTREAM APARTMENTS,3802,MELALEUCA LANE,Lake Worth,FL,33461
SLB201603159,9313-4237 HOLDING LP DBA GULFSTREAM APARTMENTS,3802,MELALEUCA LANE,Lake Worth,FL,33461
SLB201703522,Redline Design LLC,10220,Fisher Ave,Tampa,FL,33619
SLB201602793,"RJ&C Wines, Inc. dba JazzTastings",164,LAKE AVE.,Maitland,FL,32751
SLB201603519,Russ Noyes Roofing Inc.,1095,Nursery Rd,Winter Springs,FL,32708
SLB201603518,Reynosa III LLC,829,SW 3rd Street,Miami,FL,33130
SLB201603518,Reynosa III LLC,829,SW 3rd Street,Miami,FL,33130
SLB201603518,Reynosa III LLC,829,SW 3rd Street,Miami,FL,33130
SLB201603117,"T.E.N. VENTURES, LLC DBA OZO2 ECO CLEANERS",2316,SOUTH DIXIE HWY,West Palm Beach,FL,33401
SLB201603117,"T.E.N. VENTURES, LLC DBA OZO2 ECO CLEANERS",253,N FEDERAL HIGHWAY,Boca Raton,FL,33432
SLB201703125,CCW Acquisition Co. DBA Calypso Car Wash & Fast Lube,1470,GOLDEN GATE PKWY,Naples,FL,34105
SLB201703125,CCW Acquisition Co. DBA Calypso Car Wash & Fast Lube,1472,GOLDEN GATE PKWY,Naples,FL,34105
SLB201703125,CCW Acquisition Co. DBA Calypso Car Wash & Fast Lube,1470,GOLDEN GATE PKWY,Naples,FL,34105
SLB201703125,CCW Acquisition Co. DBA Calypso Car Wash & Fast Lube,1472,GOLDEN GATE PKWY,Naples,FL,34105
SLB201603505,GMH & E USA Corp.,8410,NW 70th Street,Miami,FL,33166
SLB201603505,GMH & E USA Corp.,8410,NW 70th Street,Miami,FL,33166
SLB201603505,GMH & E USA Corp.,8410,NW 70th Street,Miami,FL,33166
SLB201703125,CCW Acquisition Co. DBA Calypso Car Wash & Fast Lube,1470,GOLDEN GATE PKWY,Naples,FL,34105
SLB201703125,CCW Acquisition Co. DBA Calypso Car Wash & Fast Lube,1472,GOLDEN GATE PKWY,Naples,FL,34105
SLB201700599,"JAR MD, LLC.",5350,"W. HILLSBORO BLVD, B-207",Coconut Creek,FL,33073
SLB201603505,GMH & E USA Corp.,8410,NW 70th Street,Miami,FL,33166
SLB201702441,"LJ AUTO TRONICS, INC.",4447,S MILITARY TRAIL,Lake Worth,FL,33463
SLB201702441,"LJ AUTO TRONICS, INC.",4447,S MILITARY TRAIL,Lake Worth,FL,33463
SLB201602417,"Martin's Collision Center 1, Inc.",2540,S. MYRTLE AVE.,Sanford,FL,32773
SLB201602417,"Martin's Collision Center 1, Inc.",2540,S. MYRTLE AVE.,Sanford,FL,32773
SLB201602417,"Martin's Collision Center 1, Inc.",2540,S. MYRTLE AVE.,Sanford,FL,32773
SLB201703126,"Linda L. Witherow DDS, PA",6015,W. NORDING LOOP,Crystal River,FL,34429
SLB201703523,"Downtown Debauchery, Inc.",807,East New Haven Ave,Melbourne,FL,32901
SLB201703524,"Lake Belle Condominium No. Two, Inc.",5755-5807,West 28th Avenue,Hialeah,FL,33016
SLB201703525,A1A Auto Transmission Center Corp,7700,NW 27 Ave.,Miami,FL,33147
SLB201603429,"Bark Real Estate, LLC",5200,Lobelia Dr.,Orlando,FL,32811
